0 FENGYUN 1C DEB
1 31496U 99025BWK 13282.03711742  .00015924  00000-0  17370-2 0  5446
2 31496 099.1353 216.7670 0204942 351.4905 008.2774 14.73882990344877
0 FENGYUN 1C DEB
1 31496U 99025BWK 13282.03711953  .00028087  00000-0  30654-2 0  5455
2 31496 099.1341 216.7702 0203627 351.4707 008.3055 14.73889082344871
0 FENGYUN 1C DEB
1 31496U 99025BWK 13282.64808601  .00021811  00000-0  23838-2 0  5464
2 31496 099.1339 217.4585 0203470 349.5463 010.1541 14.73915157344951
0 FENGYUN 1C DEB
1 31496U 99025BWK 13284.07363331  .00024330  00000-0  26568-2 0  5472
2 31496 099.1335 219.0650 0203057 345.1238 014.4047 14.73973600345160
0 FENGYUN 1C DEB
1 31496U 99025BWK 13285.63488381  .00020930  00000-0  22858-2 0  5489
2 31496 099.1336 220.8240 0202789 340.2637 019.0800 14.74040081345398
0 FENGYUN 1C DEB
1 31496U 99025BWK 13287.06031512  .00020532  00000-0  22412-2 0  5493
2 31496 099.1341 222.4302 0202539 335.8276 023.3525 14.74094301345603
0 FENGYUN 1C DEB
1 31496U 99025BWK 13288.07844763  .00032131  00000-0  34961-2 0  5507
2 31496 099.1345 223.5775 0202289 332.6530 026.4138 14.74141043345759
0 FENGYUN 1C DEB
1 31496U 99025BWK 13288.62143622  .00025855  00000-0  28160-2 0  5514
2 31496 099.1347 224.1894 0202197 330.9560 028.0515 14.74166610345835
0 FENGYUN 1C DEB
1 31496U 99025BWK 13290.04673973  .00024462  00000-0  26629-2 0  5522
2 31496 099.1353 225.7961 0201917 326.4946 032.3618 14.74233864346043
0 FENGYUN 1C DEB
1 31496U 99025BWK 13291.06477579  .00023793  00000-0  25895-2 0  5530
2 31496 099.1356 226.9433 0201662 323.3031 035.4504 14.74281066346192
0 FENGYUN 1C DEB
1 31496U 99025BWK 13291.60771563  .00024448  00000-0  26598-2 0  5540
2 31496 099.1358 227.5557 0201566 321.6099 037.0904 14.74300561346279
0 FENGYUN 1C DEB
1 31496U 99025BWK 13294.05084175  .00023585  00000-0  25632-2 0  5558
2 31496 099.1367 230.3097 0201088 313.9947 044.4830 14.74408843346637
